COMMENT,ORIGINATOR,NORAD_CAT_ID,OBJECT_NAME,OBJECT_TYPE,CLASSIFICATION_TYPE,INTLDES,EPOCH,EPOCH_MICROSECONDS,MEAN_MOTION,ECCENTRICITY,INCLINATION,RA_OF_ASC_NODE,ARG_OF_PERICENTER,MEAN_ANOMALY,EPHEMERIS_TYPE,ELEMENT_SET_NO,REV_AT_EPOCH,BSTAR,MEAN_MOTION_DOT,MEAN_MOTION_DDOT,FILE,TLE_LINE0,TLE_LINE1,TLE_LINE2,OBJECT_ID,OBJECT_NUMBER,SEMIMAJOR_AXIS,PERIOD,APOGEE,PERIGEE,DECAYED
"GENERATED VIA SPACETRACK.ORG API","18 SPCS","48896","SPACEBEE-105","PAYLOAD","U","21059T","2022-08-22 14:40:21","761472","15.16785752","0.0007624","97.5617","3.8582","221.6729","138.3924","0","999","6395","0.00029077","0.00005646","0","3544179","0 SPACEBEE-105","1 48896U 21059T   22234.61136298  .00005646  00000-0  29077-3 0  9990","2 48896  97.5617   3.8582 0007624 221.6729 138.3924 15.16785752 63956","2021-059T","48896","6893.699","94.938","520.820","510.309","0"
"GENERATED VIA SPACETRACK.ORG API","18 SPCS","48896","SPACEBEE-105","PAYLOAD","U","21059T","2022-08-23 08:05:20","228352","15.16792608","0.000769","97.5617","4.5818","219.0795","140.9883","0","999","6406","0.00022929","0.00004438","0","3545070","0 SPACEBEE-105","1 48896U 21059T   22235.33703968  .00004438  00000-0  22929-3 0  9991","2 48896  97.5617   4.5818 0007690 219.0795 140.9883 15.16792608 64067","2021-059T","48896","6893.679","94.937","520.845","510.242","0"
"GENERATED VIA SPACETRACK.ORG API","18 SPCS","48896","SPACEBEE-105","PAYLOAD","U","21059T","2022-08-23 20:45:18","955008","15.16798322","0.0007721","97.562","5.108","217.302","142.7677","0","999","6414","0.0002497","0.00004841","0","3545624","0 SPACEBEE-105","1 48896U 21059T   22235.86480272  .00004841  00000-0  24970-3 0  9995","2 48896  97.5620   5.1080 0007721 217.3020 142.7677 15.16798322 64145","2021-059T","48896","6893.661","94.937","520.849","510.204","0"
"GENERATED VIA SPACETRACK.ORG API","18 SPCS","48896","SPACEBEE-105","PAYLOAD","U","21059T","2022-08-23 22:20:18","787200","15.16798934","0.0007723","97.562","5.1738","217.0529","143.0172","0","999","6415","0.00024904","0.00004828","0","3545776","0 SPACEBEE-105","1 48896U 21059T   22235.93077300  .00004828  00000-0  24904-3 0  9999","2 48896  97.5620   5.1738 0007723 217.0529 143.0172 15.16798934 64152","2021-059T","48896","6893.660","94.937","520.849","510.201","0"
"GENERATED VIA SPACETRACK.ORG API","18 SPCS","48896","SPACEBEE-105","PAYLOAD","U","21059T","2022-08-24 07:50:17","694816","15.16802865","0.0007784","97.5621","5.5685","215.6159","144.4556","0","999","6421","0.00024423","0.00004734","0","3546350","0 SPACEBEE-105","1 48896U 21059T   22236.32659369  .00004734  00000-0  24423-3 0  9996","2 48896  97.5621   5.5685 0007784 215.6159 144.4556 15.16802865 64215","2021-059T","48896","6893.648","94.937","520.879","510.147","0"
"GENERATED VIA SPACETRACK.ORG API","18 SPCS","48896","SPACEBEE-105","PAYLOAD","U","21059T","2022-08-24 14:10:16","933728","15.16805584","0.0007799","97.5622","5.8316","214.6405","145.4321","0","999","6425","0.00025534","0.00004953","0","3546663","0 SPACEBEE-105","1 48896U 21059T   22236.59047377  .00004953  00000-0  25534-3 0  9992","2 48896  97.5622   5.8316 0007799 214.6405 145.4321 15.16805584 64255","2021-059T","48896","6893.639","94.936","520.881","510.128","0"
"GENERATED VIA SPACETRACK.ORG API","18 SPCS","48896","SPACEBEE-105","PAYLOAD","U","21059T","2022-08-25 01:15:15","496416","15.16810751","0.000785","97.5623","6.2921","212.9832","147.0912","0","999","6432","0.00027336","0.00005308","0","3546770","0 SPACEBEE-105","1 48896U 21059T   22237.05226269  .00005308  00000-0  27336-3 0  9990","2 48896  97.5623   6.2921 0007850 212.9832 147.0912 15.16810751 64320","2021-059T","48896","6893.624","94.936","520.900","510.077","0"
"GENERATED VIA SPACETRACK.ORG API","18 SPCS","48896","SPACEBEE-105","PAYLOAD","U","21059T","2022-08-25 07:35:14","629920","15.16812893","0.0007901","97.5625","6.5552","211.781","148.2946","0","999","6436","0.00026133","0.00005072","0","3547226","0 SPACEBEE-105","1 48896U 21059T   22237.31614155  .00005072  00000-0  26133-3 0  9996","2 48896  97.5625   6.5552 0007901 211.7810 148.2946 15.16812893 64368","2021-059T","48896","6893.617","94.936","520.929","510.036","0"
"GENERATED VIA SPACETRACK.ORG API","18 SPCS","48896","SPACEBEE-105","PAYLOAD","U","21059T","2022-08-25 20:15:12","740544","15.16819349","0.0007939","97.5626","7.0815","209.7986","150.2796","0","999","6444","0.00028774","0.00005593","0","3547674","0 SPACEBEE-105","1 48896U 21059T   22237.84389746  .00005593  00000-0  28774-3 0  9990","2 48896  97.5626   7.0815 0007939 209.7986 150.2796 15.16819349 64447","2021-059T","48896","6893.598","94.935","520.936","509.990","0"
"GENERATED VIA SPACETRACK.ORG API","18 SPCS","48896","SPACEBEE-105","PAYLOAD","U","21059T","2022-08-26 07:20:10","969728","15.16823636","0.0007986","97.5629","7.5421","207.9918","152.0886","0","999","6451","0.00027415","0.00005326","0","3548202","0 SPACEBEE-105","1 48896U 21059T   22238.30568252  .00005326  00000-0  27415-3 0  9998","2 48896  97.5629   7.5421 0007986 207.9918 152.0886 15.16823636 64517","2021-059T","48896","6893.585","94.935","520.955","509.944","0"
"GENERATED VIA SPACETRACK.ORG API","18 SPCS","48896","SPACEBEE-105","PAYLOAD","U","21059T","2022-08-26 07:20:10","969728","15.16823636","0.0007986","97.5629","7.5421","207.9918","152.0886","0","999","6451","0.00027415","0.00005326","0","3548418","0 SPACEBEE-105","1 48896U 21059T   22238.30568252  .00005326  00000-0  27415-3 0  9998","2 48896  97.5629   7.5421 0007986 207.9918 152.0886 15.16823636 64517","2021-059T","48896","6893.585","94.935","520.955","509.944","0"
"GENERATED VIA SPACETRACK.ORG API","18 SPCS","48896","SPACEBEE-105","PAYLOAD","U","21059T","2022-08-26 21:35:08","479680","15.16831028","0.0008021","97.5631","8.1343","205.7161","154.3674","0","999","6460","0.0002946","0.0000573","0","3548620","0 SPACEBEE-105","1 48896U 21059T   22238.89940370  .00005730  00000-0  29460-3 0  9998","2 48896  97.5631   8.1343 0008021 205.7161 154.3674 15.16831028 64601","2021-059T","48896","6893.562","94.935","520.957","509.898","0"
"GENERATED VIA SPACETRACK.ORG API","18 SPCS","48896","SPACEBEE-105","PAYLOAD","U","21059T","2022-08-27 08:40:06","359808","15.16837049","0.000805","97.5634","8.5949","203.9328","156.1532","0","999","6467","0.00031149","0.00006063","0","3548622","0 SPACEBEE-105","1 48896U 21059T   22239.36118472  .00006063  00000-0  31149-3 0  9998","2 48896  97.5634   8.5949 0008050 203.9328 156.1532 15.16837049 64676","2021-059T","48896","6893.544","94.934","520.958","509.860","0"
"GENERATED VIA SPACETRACK.ORG API","18 SPCS","48896","SPACEBEE-105","PAYLOAD","U","21059T","2022-08-27 21:20:03","729120","15.16845698","0.0008097","97.5636","9.1213","202.1919","157.8965","0","999","6475","0.00036771","0.00007173","0","3548882","0 SPACEBEE-105","1 48896U 21059T   22239.88893205  .00007173  00000-0  36771-3 0  9998","2 48896  97.5636   9.1213 0008097 202.1919 157.8965 15.16845698 64753","2021-059T","48896","6893.518","94.934","520.965","509.801","0"
"GENERATED VIA SPACETRACK.ORG API","18 SPCS","48896","SPACEBEE-105","PAYLOAD","U","21059T","2022-08-28 08:25:01","288704","15.16851091","0.0008134","97.5637","9.5819","200.417","159.6739","0","999","6482","0.00035865","0.00006996","0","3549654","0 SPACEBEE-105","1 48896U 21059T   22240.35070936  .00006996  00000-0  35865-3 0  9995","2 48896  97.5637   9.5819 0008134 200.4170 159.6739 15.16851091 64823","2021-059T","48896","6893.502","94.934","520.974","509.759","0"
"GENERATED VIA SPACETRACK.ORG API","18 SPCS","48896","SPACEBEE-105","PAYLOAD","U","21059T","2022-08-28 19:29:58","697088","15.16857498","0.0008156","97.5639","10.0426","198.8672","161.226","0","999","6489","0.0003795","0.00007408","0","3549760","0 SPACEBEE-105","1 48896U 21059T   22240.81248492  .00007408  00000-0  37950-3 0  9996","2 48896  97.5639  10.0426 0008156 198.8672 161.2260 15.16857498 64899","2021-059T","48896","6893.482","94.933","520.969","509.725","0"
"GENERATED VIA SPACETRACK.ORG API","18 SPCS","48896","SPACEBEE-105","PAYLOAD","U","21059T","2022-08-28 21:04:58","308960","15.1685839","0.0008167","97.564","10.1085","198.5922","161.5014","0","999","6490","0.00037913","0.00007401","0","3550014","0 SPACEBEE-105","1 48896U 21059T   22240.87845265  .00007401  00000-0  37913-3 0  9995","2 48896  97.5640  10.1085 0008167 198.5922 161.5014 15.16858390 64904","2021-059T","48896","6893.479","94.933","520.974","509.715","0"
"GENERATED VIA SPACETRACK.ORG API","18 SPCS","48896","SPACEBEE-105","PAYLOAD","U","21059T","2022-08-29 08:09:55","546272","15.16861929","0.0008194","97.564","10.5692","197.0184","163.0775","0","999","6497","0.00031848","0.00006206","0","3550737","0 SPACEBEE-105","1 48896U 21059T   22241.34022623  .00006206  00000-0  31848-3 0  9996","2 48896  97.5640  10.5692 0008194 197.0184 163.0775 15.16861929 64976","2021-059T","48896","6893.469","94.933","520.982","509.685","0"
"GENERATED VIA SPACETRACK.ORG API","18 SPCS","48896","SPACEBEE-105","PAYLOAD","U","21059T","2022-08-29 19:14:52","674720","15.16873066","0.0008198","97.564","11.03","195.5054","164.5929","0","999","6504","0.00048482","0.0000949","0","3551093","0 SPACEBEE-105","1 48896U 21059T   22241.80199855  .00009490  00000-0  48482-3 0  9999","2 48896  97.5640  11.0300 0008198 195.5054 164.5929 15.16873066 65042","2021-059T","48896","6893.435","94.932","520.951","509.649","0"
"GENERATED VIA SPACETRACK.ORG API","18 SPCS","48896","SPACEBEE-105","PAYLOAD","U","21059T","2022-08-29 22:24:51","812928","15.16875905","0.000821","97.564","11.1616","195.1092","164.9897","0","999","6506","0.00051732","0.00010132","0","3551307","0 SPACEBEE-105","1 48896U 21059T   22241.93393302  .00010132  00000-0  51732-3 0  9993","2 48896  97.5640  11.1616 0008210 195.1092 164.9897 15.16875905 65060","2021-059T","48896","6893.426","94.932","520.951","509.632","0"
